1 44760U 19074AZ  22365.52676448  .00020001  00000-0  13551-2 0  9992
2 44760  53.0515  52.7606 0001734  57.6798 302.4359 15.06474811172907
1 44760U 19074AZ  23001.38921931  .00018770  00000-0  12720-2 0  9991
2 44760  53.0516  48.8884 0001876  58.1952 301.9220 15.06506803172860
1 44760U 19074AZ  23001.85361113  .00017178  00000-0  11655-2 0  9990
2 44760  53.0520  46.8030 0001903  58.6415 301.4760 15.06521380172935
1 44760U 19074AZ  23001.85361113  .00017178  00000-0  11655-2 0  9990
2 44760  53.0520  46.8030 0001903  58.6415 301.4760 15.06521380173105
1 44760U 19074AZ  23002.51701767  .00017168  00000-0  11640-2 0  9990
2 44760  53.0523  43.8244 0001961  57.5730 302.5448 15.06547059173032
1 44760U 19074AZ  23003.11407444  .00016426  00000-0  11140-2 0  9993
2 44760  53.0524  41.1437 0002016  58.0274 302.0911 15.06568954173294
1 44760U 19074AZ  23003.51210739  .00016344  00000-0  11081-2 0  9999
2 44760  53.0524  39.3563 0002043  58.2727 301.8461 15.06583666173180
1 44760U 19074AZ  23004.50717301  .00020230  00000-0  13648-2 0  9996
2 44760  53.0527  34.8878 0002097  60.7330 299.3869 15.06624437173331
1 44760U 19074AZ  23004.50717301  .00020230  00000-0  13648-2 0  9996
2 44760  53.0527  34.8878 0002097  60.7330 299.3869 15.06624437173500
1 44760U 19074AZ  23004.77251860  .00022716  00000-0  15291-2 0  9995
2 44760  53.0527  33.6961 0002112  61.6686 298.4516 15.06638648173375
1 44760U 19074AZ  23005.36953914  .00017560  00000-0  11865-2 0  9994
2 44760  53.0525  31.0146 0002122  62.3377 297.7827 15.06659505173468
1 44760U 19074AZ  23005.76754707  .00018066  00000-0  12195-2 0  9996
2 44760  53.0522  29.2269 0002150  63.2314 296.8895 15.06677670173527
1 44760U 19074AZ  23005.76754707  .00018066  00000-0  12195-2 0  9996
2 44760  53.0522  29.2269 0002150  63.2314 296.8895 15.06677670173695
1 44760U 19074AZ  23007.09420719  .00019661  00000-0  13230-2 0  9990
2 44760  53.0514  23.2677 0002259  65.6175 294.5050 15.06737812173899
1 44760U 19074AZ  23007.29320191  .00021284  00000-0  14300-2 0  9998
2 44760  53.0515  22.3741 0002293  65.6453 294.4775 15.06746574173752
1 44760U 19074AZ  23007.75751893  .00021787  00000-0  14625-2 0  9994
2 44760  53.0517  20.2881 0002307  66.1952 293.9279 15.06766236173820
1 44760U 19074AZ  23008.28815961  .00020600  00000-0  13833-2 0  9993
2 44760  53.0519  17.9043 0002371  67.4394 292.6845 15.06787319173909
1 44760U 19074AZ  23008.28815961  .00020600  00000-0  13833-2 0  9993
2 44760  53.0519  17.9043 0002371  67.4394 292.6845 15.06787319174078
1 44760U 19074AZ  23008.75246283  .00022226  00000-0  14897-2 0  9997
2 44760  53.0523  15.8184 0002421  68.0319 292.0927 15.06810467173970
1 44760U 19074AZ  23009.28308698  .00022057  00000-0  14776-2 0  9993
2 44760  53.0525  13.4352 0002495  67.7412 292.3841 15.06835320174057
1 44760U 19074AZ  23009.28308698  .00022057  00000-0  14776-2 0  9993
2 44760  53.0525  13.4352 0002495  67.7412 292.3841 15.06835320174226
1 44760U 19074AZ  23010.41063353  .00022645  00000-0  15141-2 0  9996
2 44760  53.0533   8.3696 0002566  69.6775 290.4489 15.06889399174223
1 44760U 19074AZ  23010.41063353  .00022645  00000-0  15141-2 0  9996
2 44760  53.0533   8.3696 0002566  69.6775 290.4489 15.06889399174391
1 44760U 19074AZ  23010.67593191  .00022154  00000-0  14812-2 0  9991
2 44760  53.0533   7.1775 0002582  72.1004 288.0266 15.06904073174267
1 44760U 19074AZ  23011.20652199  .00029525  00000-0  19640-2 0  9998
2 44760  53.0534   4.7939 0002639  77.9353 282.1932 15.06937160174343
1 44760U 19074AZ  23011.20652199  .00029525  00000-0  19640-2 0  9998
2 44760  53.0534   4.7939 0002639  77.9353 282.1932 15.06937160174512
1 44760U 19074AZ  23011.93606659  .00031615  00000-0  20988-2 0  9998
2 44760  53.0539   1.5157 0002747  77.4411 282.6885 15.06977697174458
1 44760U 19074AZ  23012.66558957  .00026222  00000-0  17434-2 0  9996
2 44760  53.0529 358.2377 0002647  78.4726 281.6560 15.07018443174738
1 44760U 19074AZ  23012.93086569  .00028341  00000-0  18813-2 0  9997
2 44760  53.0529 357.0454 0002684  79.4701 280.6591 15.07035779174606
1 44760U 19074AZ  23013.39509179  .00030321  00000-0  20093-2 0  9999
2 44760  53.0525 354.9595 0002706  79.7118 280.4176 15.07065069174673
1 44760U 19074AZ  23013.66035886  .00031040  00000-0  20552-2 0  9997
2 44760  53.0527 353.7673 0002703  81.4591 278.6704 15.07084176174880
1 44760U 19074AZ  23013.92562313  .00033315  00000-0  22026-2 0  9991
2 44760  53.0526 352.5749 0002711  82.2059 277.9238 15.07104010174757
1 44760U 19074AZ  23014.32351229  .00042873  00000-0  28226-2 0  9995
2 44760  53.0526 350.7866 0002758  83.3864 276.7439 15.07140414174987
1 44760U 19074AZ  23015.31819941  .00046180  00000-0  30308-2 0  9994
2 44760  53.0525 346.3155 0002842  86.7437 273.3877 15.07221011174965
1 44760U 19074AZ  23015.64974901  .00042069  00000-0  27623-2 0  9996
2 44760  53.0525 344.8252 0002844  87.5329 272.5986 15.07247469175011
1 44760U 19074AZ  23015.64974901  .00042069  00000-0  27623-2 0  9996
2 44760  53.0525 344.8252 0002844  87.5329 272.5986 15.07247469175189
1 44760U 19074AZ  23016.31282781  .00049964  00000-0  32676-2 0  9994
2 44760  53.0530 341.8444 0002897  89.2090 270.9231 15.07314551175112
1 44760U 19074AZ  23016.31282781  .00049964  00000-0  32676-2 0  9994
2 44760  53.0530 341.8444 0002897  89.2090 270.9231 15.07314551175280
1 44760U 19074AZ  23017.17479229  .00039844  00000-0  26085-2 0  9997
2 44760  53.0535 337.9690 0002935  91.8797 268.2529 15.07381283175411
1 44760U 19074AZ  23017.57260877  .00036908  00000-0  24167-2 0  9995
2 44760  53.0534 336.1804 0002917  93.6142 266.5181 15.07411416175307
1 44760U 19074AZ  23018.23561850  .00045748  00000-0  29828-2 0  9995
2 44760  53.0533 333.1991 0002917  96.6831 263.4491 15.07468277175574
1 44760U 19074AZ  23018.56711408  .00045093  00000-0  29384-2 0  9997
2 44760  53.0532 331.7083 0002910  98.0223 262.1097 15.07495705175454
1 44760U 19074AZ  23019.23008623  .00037366  00000-0  24373-2 0  9997
2 44760  53.0529 328.7267 0002935 100.3391 259.7929 15.07547111175556
1 44760U 19074AZ  23019.23008623  .00037366  00000-0  24373-2 0  9997
2 44760  53.0529 328.7267 0002935 100.3391 259.7929 15.07547111175725
1 44760U 19074AZ  23020.82112133  .00039877  00000-0  25896-2 0  9996
2 44760  53.0525 321.5705 0003011 106.3404 253.7917 15.07680186175963
1 44760U 19074AZ  23021.21885829  .00044929  00000-0  29104-2 0  9999
2 44760  53.0524 319.7812 0003060 107.2163 252.9161 15.07716539176028
1 44760U 19074AZ  23022.54457980  .00041029  00000-0  26524-2 0  9990
2 44760  53.0528 313.8172 0003080 111.4440 248.6878 15.07832688176226
1 44760U 19074AZ  23024.13531728  .00040045  00000-0  25806-2 0  9999
2 44760  53.0533 306.6597 0003080 114.8625 245.2685 15.07960926176467
1 44760U 19074AZ  23025.46083513  .00029651  00000-0  19138-2 0  9991
2 44760  53.0524 300.6942 0003066 120.3147 239.8146 15.08048555176490
1 44760U 19074AZ  23025.46083513  .00029651  00000-0  19138-2 0  9991
2 44760  53.0524 300.6942 0003066 120.3147 239.8146 15.08048555176669
1 44760U 19074AZ  23026.12356705  .00033952  00000-0  21849-2 0  9992
2 44760  53.0517 297.7112 0003077 122.7140 237.4147 15.08091227176598
1 44760U 19074AZ  23027.11763272  .00029162  00000-0  18777-2 0  9997
2 44760  53.0513 293.2364 0003101 125.4362 234.6918 15.08146155176741
1 44760U 19074AZ  23027.11763272  .00029162  00000-0  18777-2 0  9997
2 44760  53.0513 293.2364 0003101 125.4362 234.6918 15.08146155176910
1 44760U 19074AZ  23028.11166462  .00026376  00000-0  16985-2 0  9999
2 44760  53.0511 288.7619 0003018 125.6820 234.4451 15.08194467176894
1 44760U 19074AZ  23028.11166462  .00026376  00000-0  16985-2 0  9999
2 44760  53.0511 288.7619 0003018 125.6820 234.4451 15.08194467177064
1 44760U 19074AZ  23028.90686844  .00019956  00000-0  12896-2 0  9990
2 44760  53.0512 285.1814 0002991 127.4317 232.6946 15.08225242177013
1 44760U 19074AZ  23029.10566662  .00020808  00000-0  13434-2 0  9995
2 44760  53.0511 284.2865 0002975 127.4770 232.6491 15.08234496177211
1 44760U 19074AZ  23029.83458559  .00016185  00000-0  10490-2 0  9992
2 44760  53.0512 281.0047 0002920 129.2201 230.9048 15.08258496177156
1 44760U 19074AZ  23030.09964347  .00017195  00000-0  11128-2 0  9990
2 44760  53.0515 279.8103 0002980 131.0002 229.1245 15.08269079177195
1 44760U 19074AZ  23030.09964347  .00017195  00000-0  11128-2 0  9990
2 44760  53.0515 279.8103 0002980 131.0002 229.1245 15.08269079177364
1 44760U 19074AZ  23030.89480944  .00014672  00000-0  95195-3 0  9998
2 44760  53.0519 276.2297 0003013 132.9934 227.1308 15.08292956177318
1 44760U 19074AZ  23031.09359889  .00014696  00000-0  95329-3 0  9999
2 44760  53.0519 275.3347 0003006 133.4955 226.6285 15.08299369177341
1 44760U 19074AZ  23031.95501047  .00015555  00000-0  10071-2 0  9994
2 44760  53.0518 271.4563 0002971 135.8911 224.2316 15.08327014177477
